[{"OBJECT_NAME":"STARLINK-30215","OBJECT_ID":"2023-105R","EPOCH":"2026-03-09T22:00:01.999584","MEAN_MOTION":15.21884858,"ECCENTRICITY":0.00010316,"INCLINATION":42.9992,"RA_OF_ASC_NODE":258.6075,"ARG_OF_PERICENTER":307.4613,"MEAN_ANOMALY":139.0312,"EPHEMERIS_TYPE":0,"CLASSIFICATION_TYPE":"U","NORAD_CAT_ID":57445,"ELEMENT_SET_NO":999,"REV_AT_EPOCH":578,"BSTAR":0.0053865498,"MEAN_MOTION_DOT":0.00126903,"MEAN_MOTION_DDOT":0},{"OBJECT_NAME":"OBJECT D","OBJECT_ID":"2024-203D","EPOCH":"2026-03-09T23:01:14.628576","MEAN_MOTION":15.25394324,"ECCENTRICITY":0.00105281,"INCLINATION":97.4343,"RA_OF_ASC_NODE":139.6527,"ARG_OF_PERICENTER":340.1906,"MEAN_ANOMALY":19.8921,"EPHEMERIS_TYPE":0,"CLASSIFICATION_TYPE":"U","NORAD_CAT_ID":61872,"ELEMENT_SET_NO":999,"REV_AT_EPOCH":7378,"BSTAR":0.00059366578,"MEAN_MOTION_DOT":0.00014956,"MEAN_MOTION_DDOT":0}]
